[{"id":1,"name":"Afghanistan","iso2":"AF","iso3":"AFG","phonecode":"93","capital":"Kabul","currency":"AFN","native":"Ø£ÙØºØ§Ù†Ø³ØªØ§Ù†","emoji":"ğŸ‡¦ğŸ‡«","ARName":"Ø£ÙØºØ§Ù†Ø³ØªØ§Ù†","show":true},{"id":2,"name":"Aland Islands","iso2":"AX","iso3":"ALA","phonecode":"+358-18","capital":"Mariehamn","currency":"EUR","native":"Ã…land","emoji":"ğŸ‡¦ğŸ‡½","ARName":"Ø¬Ø²Ø± Ø¢Ù„Ø§Ù†Ø¯","show":false},{"id":3,"name":"Albania","iso2":"AL","iso3":"ALB","phonecode":"355","capital":"Tirana","currency":"ALL","native":"ShqipÃ«ria","emoji":"ğŸ‡¦ğŸ‡±","ARName":"Ø£Ù„Ø¨Ø§Ù†ÙŠØ§","show":true},{"id":4,"name":"Algeria","iso2":"DZ","iso3":"DZA","phonecode":"213","capital":"Algiers","currency":"DZD","native":"Ø§Ù„Ø¬Ø²Ø§Ø¦Ø±","emoji":"ğŸ‡©ğŸ‡¿","ARName":"Ø§Ù„Ø¬Ø²Ø§Ø¦Ø±","show":true},{"id":5,"name":"American Samoa","iso2":"AS","iso3":"ASM","phonecode":"+1-684","capital":"Pago Pago","currency":"USD","native":"American Samoa","emoji":"ğŸ‡¦ğŸ‡¸","ARName":"Ø³Ø§Ù…ÙˆØ§ Ø§Ù„Ø£Ù…Ø±ÙŠÙƒÙŠØ©","show":false},{"id":6,"name":"Andorra","iso2":"AD","iso3":"AND","phonecode":"376","capital":"Andorra la Vella","currency":"EUR","native":"Andorra","emoji":"ğŸ‡¦ğŸ‡©","ARName":"Ø£Ù†Ø¯ÙˆØ±Ø§","show":true},{"id":7,"name":"Angola","iso2":"AO","iso3":"AGO","phonecode":"244","capital":"Luanda","currency":"AOA","native":"Angola","emoji":"ğŸ‡¦ğŸ‡´","ARName":"Ø£Ù†ØºÙˆÙ„Ø§","show":true},{"id":8,"name":"Anguilla","iso2":"AI","iso3":"AIA","phonecode":"+1-264","capital":"The Valley","currency":"XCD","native":"Anguilla","emoji":"ğŸ‡¦ğŸ‡®","ARName":"Ø£Ù†ØºÙŠÙ„Ø§","show":false},{"id":9,"name":"Antarctica","iso2":"AQ","iso3":"ATA","phonecode":"672","capital":"","currency":"AAD","native":"Antarctica","emoji":"ğŸ‡¦ğŸ‡¶","ARName":"Ø§Ù„Ù‚Ø§Ø±Ø© Ø§Ù„Ù‚Ø·Ø¨ÙŠØ© Ø§Ù„Ø¬Ù†ÙˆØ¨ÙŠØ©","show":false},{"id":10,"name":"Antigua And Barbuda","iso2":"AG","iso3":"ATG","phonecode":"+1-268","capital":"St. John's","currency":"XCD","native":"Antigua and Barbuda","emoji":"ğŸ‡¦ğŸ‡¬","ARName":"Ø£Ù†ØªÙŠØºÙˆØ§ ÙˆØ¨Ø±Ø¨ÙˆØ¯Ø§","show":true},{"id":11,"name":"Argentina","iso2":"AR","iso3":"ARG","phonecode":"54","capital":"Buenos Aires","currency":"ARS","native":"Argentina","emoji":"ğŸ‡¦ğŸ‡·","ARName":"Ø§Ù„Ø£Ø±Ø¬Ù†ØªÙŠÙ†","show":true},{"id":12,"name":"Armenia","iso2":"AM","iso3":"ARM","phonecode":"374","capital":"Yerevan","currency":"AMD","native":"Õ€Õ¡ÕµÕ¡Õ½Õ¿Õ¡Õ¶","emoji":"ğŸ‡¦ğŸ‡²","ARName":"Ø£Ø±Ù…ÙŠÙ†ÙŠØ§","show":true},{"id":13,"name":"Aruba","iso2":"AW","iso3":"ABW","phonecode":"297","capital":"Oranjestad","currency":"AWG","native":"Aruba","emoji":"ğŸ‡¦ğŸ‡¼","ARName":"Ø£Ø±ÙˆØ¨Ø§","show":false},{"id":14,"name":"Australia","iso2":"AU","iso3":"AUS","phonecode":"61","capital":"Canberra","currency":"AUD","native":"Australia","emoji":"ğŸ‡¦ğŸ‡º","ARName":"Ø£Ø³ØªØ±Ø§Ù„ÙŠØ§","show":true},{"id":15,"name":"Austria","iso2":"AT","iso3":"AUT","phonecode":"43","capital":"Vienna","currency":"EUR","native":"Ã–sterreich","emoji":"ğŸ‡¦ğŸ‡¹","ARName":"Ø§Ù„Ù†Ù…Ø³Ø§","show":true},{"id":16,"name":"Azerbaijan","iso2":"AZ","iso3":"AZE","phonecode":"994","capital":"Baku","currency":"AZN","native":"AzÉ™rbaycan","emoji":"ğŸ‡¦ğŸ‡¿","ARName":"Ø£Ø°Ø±Ø¨ÙŠØ¬Ø§Ù†","show":true},{"id":17,"name":"The Bahamas","iso2":"BS","iso3":"BHS","phonecode":"+1-242","capital":"Nassau","currency":"BSD","native":"Bahamas","emoji":"ğŸ‡§ğŸ‡¸","ARName":"Ø¬Ø²Ø± Ø§Ù„Ø¨Ø§Ù‡Ø§Ù…Ø§","show":true},{"id":18,"name":"Bahrain","iso2":"BH","iso3":"BHR","phonecode":"973","capital":"Manama","currency":"BHD","native":"Ø§Ù„Ø¨Ø­Ø±ÙŠÙ†","emoji":"ğŸ‡§ğŸ‡­","ARName":"Ø§Ù„Ø¨Ø­Ø±ÙŠÙ†","show":true},{"id":19,"name":"Bangladesh","iso2":"BD","iso3":"BGD","phonecode":"880","capital":"Dhaka","currency":"BDT","native":"Bangladesh","emoji":"ğŸ‡§ğŸ‡©","ARName":"Ø¨Ù†ØºÙ„Ø§Ø¯ÙŠØ´","show":true},{"id":20,"name":"Barbados","iso2":"BB","iso3":"BRB","phonecode":"+1-246","capital":"Bridgetown","currency":"BBD","native":"Barbados","emoji":"ğŸ‡§ğŸ‡§","ARName":"Ø¨Ø±Ø¨Ø§Ø¯ÙˆØ³","show":true},{"id":21,"name":"Belarus","iso2":"BY","iso3":"BLR","phonecode":"375","capital":"Minsk","currency":"BYN","native":"Ğ‘ĞµĞ»Ğ°Ñ€ÑƒÌÑÑŒ","emoji":"ğŸ‡§ğŸ‡¾","ARName":"Ø¨ÙŠÙ„Ø§Ø±ÙˆØ³ÙŠØ§","show":true},{"id":22,"name":"Belgium","iso2":"BE","iso3":"BEL","phonecode":"32","capital":"Brussels","currency":"EUR","native":"BelgiÃ«","emoji":"ğŸ‡§ğŸ‡ª","ARName":"Ø¨Ù„Ø¬ÙŠÙƒØ§","show":true},{"id":23,"name":"Belize","iso2":"BZ","iso3":"BLZ","phonecode":"501","capital":"Belmopan","currency":"BZD","native":"Belize","emoji":"ğŸ‡§ğŸ‡¿","ARName":"Ø¨Ù„ÙŠØ²","show":true},{"id":24,"name":"Benin","iso2":"BJ","iso3":"BEN","phonecode":"229","capital":"Porto-Novo","currency":"XOF","native":"BÃ©nin","emoji":"ğŸ‡§ğŸ‡¯","ARName":"Ø¨Ù†ÙŠÙ†","show":true},{"id":25,"name":"Bermuda","iso2":"BM","iso3":"BMU","phonecode":"+1-441","capital":"Hamilton","currency":"BMD","native":"Bermuda","emoji":"ğŸ‡§ğŸ‡²","ARName":"Ø¨Ø±Ù…ÙˆØ¯Ø§","show":true},{"id":26,"name":"Bhutan","iso2":"BT","iso3":"BTN","phonecode":"975","capital":"Thimphu","currency":"BTN","native":"Ê¼brug-yul","emoji":"ğŸ‡§ğŸ‡¹","ARName":"Ø¨ÙˆØªØ§Ù†","show":true},{"id":27,"name":"Bolivia","iso2":"BO","iso3":"BOL","phonecode":"591","capital":"Sucre","currency":"BOB","native":"Bolivia","emoji":"ğŸ‡§ğŸ‡´","ARName":"Ø¨ÙˆÙ„ÙŠÙÙŠØ§","show":true},{"id":28,"name":"Bosnia and Herzegovina","iso2":"BA","iso3":"BIH","phonecode":"387","capital":"Sarajevo","currency":"BAM","native":"Bosna i Hercegovina","emoji":"ğŸ‡§ğŸ‡¦","ARName":"Ø§Ù„Ø¨ÙˆØ³Ù†Ø© ÙˆØ§Ù„Ù‡Ø±Ø³Ùƒ","show":true},{"id":29,"name":"Botswana","iso2":"BW","iso3":"BWA","phonecode":"267","capital":"Gaborone","currency":"BWP","native":"Botswana","emoji":"ğŸ‡§ğŸ‡¼","ARName":"Ø¨ÙˆØªØ³ÙˆØ§Ù†Ø§","show":true},{"id":30,"name":"Bouvet Island","iso2":"BV","iso3":"BVT","phonecode":"0055","capital":"","currency":"NOK","native":"BouvetÃ¸ya","emoji":"ğŸ‡§ğŸ‡»","ARName":"Ø¬Ø²ÙŠØ±Ø© Ø¨ÙˆÙÙŠÙ‡","show":false},{"id":31,"name":"Brazil","iso2":"BR","iso3":"BRA","phonecode":"55","capital":"Brasilia","currency":"BRL","native":"Brasil","emoji":"ğŸ‡§ğŸ‡·","ARName":"Ø§Ù„Ø¨Ø±Ø§Ø²ÙŠÙ„","show":true},{"id":32,"name":"British Indian Ocean Territory","iso2":"IO","iso3":"IOT","phonecode":"246","capital":"Diego Garcia","currency":"USD","native":"British Indian Ocean Territory","emoji":"ğŸ‡®ğŸ‡´","ARName":"Ø¥Ù‚Ù„ÙŠÙ… Ø§Ù„Ù…Ø­ÙŠØ· Ø§Ù„Ù‡Ù†Ø¯ÙŠ Ø§Ù„Ø¨Ø±ÙŠØ·Ø§Ù†ÙŠ","show":false},{"id":33,"name":"Brunei","iso2":"BN","iso3":"BRN","phonecode":"673","capital":"Bandar Seri Begawan","currency":"BND","native":"Negara Brunei Darussalam","emoji":"ğŸ‡§ğŸ‡³","ARName":"Ø¨Ø±ÙˆÙ†Ø§ÙŠ","show":true},{"id":34,"name":"Bulgaria","iso2":"BG","iso3":"BGR","phonecode":"359","capital":"Sofia","currency":"BGN","native":"Ğ‘ÑŠĞ»Ğ³Ğ°Ñ€Ğ¸Ñ","emoji":"ğŸ‡§ğŸ‡¬","ARName":"Ø¨Ù„ØºØ§Ø±ÙŠØ§","show":true},{"id":35,"name":"Burkina Faso","iso2":"BF","iso3":"BFA","phonecode":"226","capital":"Ouagadougou","currency":"XOF","native":"Burkina Faso","emoji":"ğŸ‡§ğŸ‡«","ARName":"Ø¨ÙˆØ±ÙƒÙŠÙ†Ø§ ÙØ§Ø³Ùˆ","show":true},{"id":36,"name":"Burundi","iso2":"BI","iso3":"BDI","phonecode":"257","capital":"Bujumbura","currency":"BIF","native":"Burundi","emoji":"ğŸ‡§ğŸ‡®","ARName":"Ø¨ÙˆØ±ÙˆÙ†Ø¯ÙŠ","show":true},{"id":37,"name":"Cambodia","iso2":"KH","iso3":"KHM","phonecode":"855","capital":"Phnom Penh","currency":"KHR","native":"KÃ¢mpÅ­chÃ©a","emoji":"ğŸ‡°ğŸ‡­","ARName":"ÙƒÙ…Ø¨ÙˆØ¯ÙŠØ§","show":true},{"id":38,"name":"Cameroon","iso2":"CM","iso3":"CMR","phonecode":"237","capital":"Yaounde","currency":"XAF","native":"Cameroon","emoji":"ğŸ‡¨ğŸ‡²","ARName":"Ø§Ù„ÙƒØ§Ù…ÙŠØ±ÙˆÙ†","show":true},{"id":39,"name":"Canada","iso2":"CA","iso3":"CAN","phonecode":"1","capital":"Ottawa","currency":"CAD","native":"Canada","emoji":"ğŸ‡¨ğŸ‡¦","ARName":"ÙƒÙ†Ø¯Ø§","show":true},{"id":40,"name":"Cape Verde","iso2":"CV","iso3":"CPV","phonecode":"238","capital":"Praia","currency":"CVE","native":"Cabo Verde","emoji":"ğŸ‡¨ğŸ‡»","ARName":"Ø§Ù„Ø±Ø£Ø³ Ø§Ù„Ø£Ø®Ø¶Ø±","show":true},{"id":41,"name":"Cayman Islands","iso2":"KY","iso3":"CYM","phonecode":"+1-345","capital":"George Town","currency":"KYD","native":"Cayman Islands","emoji":"ğŸ‡°ğŸ‡¾","ARName":"Ø¬Ø²Ø± ÙƒØ§ÙŠÙ…Ø§Ù†","show":false},{"id":42,"name":"Central African Republic","iso2":"CF","iso3":"CAF","phonecode":"236","capital":"Bangui","currency":"XAF","native":"KÃ¶dÃ¶rÃ¶sÃªse tÃ® BÃªafrÃ®ka","emoji":"ğŸ‡¨ğŸ‡«","ARName":"Ø¬Ù…Ù‡ÙˆØ±ÙŠØ© Ø£ÙØ±ÙŠÙ‚ÙŠØ§ Ø§Ù„ÙˆØ³Ø·Ù‰","show":true},{"id":43,"name":"Chad","iso2":"TD","iso3":"TCD","phonecode":"235","capital":"N'Djamena","currency":"XAF","native":"Tchad","emoji":"ğŸ‡¹ğŸ‡©","ARName":"ØªØ´Ø§Ø¯","show":true},{"id":44,"name":"Chile","iso2":"CL","iso3":"CHL","phonecode":"56","capital":"Santiago","currency":"CLP","native":"Chile","emoji":"ğŸ‡¨ğŸ‡±","ARName":"ØªØ´ÙŠÙ„ÙŠ","show":true},{"id":45,"name":"China","iso2":"CN","iso3":"CHN","phonecode":"86","capital":"Beijing","currency":"CNY","native":"ä¸­å›½","emoji":"ğŸ‡¨ğŸ‡³","ARName":"Ø§Ù„ØµÙŠÙ†","show":true},{"id":46,"name":"Christmas Island","iso2":"CX","iso3":"CXR","phonecode":"61","capital":"Flying Fish Cove","currency":"AUD","native":"Christmas Island","emoji":"ğŸ‡¨ğŸ‡½","ARName":"Ø¬Ø²ÙŠØ±Ø© Ø§Ù„ÙƒØ±ÙŠØ³Ù…Ø§Ø³","show":false},{"id":47,"name":"Cocos (Keeling) Islands","iso2":"CC","iso3":"CCK","phonecode":"61","capital":"West Island","currency":"AUD","native":"Cocos (Keeling) Islands","emoji":"ğŸ‡¨ğŸ‡¨","ARName":"Ø¬Ø²Ø± ÙƒÙˆÙƒÙˆØ³ (ÙƒÙŠÙ„ÙŠÙ†Øº)","show":false},{"id":48,"name":"Colombia","iso2":"CO","iso3":"COL","phonecode":"57","capital":"BogotÃ¡","currency":"COP","native":"Colombia","emoji":"ğŸ‡¨ğŸ‡´","ARName":"ÙƒÙˆÙ„ÙˆÙ…Ø¨ÙŠØ§","show":true},{"id":49,"name":"Comoros","iso2":"KM","iso3":"COM","phonecode":"269","capital":"Moroni","currency":"KMF","native":"Komori","emoji":"ğŸ‡°ğŸ‡²","ARName":"Ø¬Ø²Ø± Ø§Ù„Ù‚Ù…Ø±","show":true},{"id":50,"name":"Congo","iso2":"CG","iso3":"COG","phonecode":"242","capital":"Brazzaville","currency":"XAF","native":"RÃ©publique du Congo","emoji":"ğŸ‡¨ğŸ‡¬","ARName":"Ø§Ù„ÙƒÙˆÙ†ØºÙˆ","show":true},{"id":51,"name":"Democratic Republic of the Congo","iso2":"CD","iso3":"COD","phonecode":"243","capital":"Kinshasa","currency":"CDF","native":"RÃ©publique dÃ©mocratique du Congo","emoji":"ğŸ‡¨ğŸ‡©","ARName":"Ø¬Ù…Ù‡ÙˆØ±ÙŠØ© Ø§Ù„ÙƒÙˆÙ†ØºÙˆ Ø§Ù„Ø¯ÙŠÙ…Ù‚Ø±Ø§Ø·ÙŠØ©","show":true},{"id":52,"name":"Cook Islands","iso2":"CK","iso3":"COK","phonecode":"682","capital":"Avarua","currency":"NZD","native":"Cook Islands","emoji":"ğŸ‡¨ğŸ‡°","ARName":"Ø¬Ø²Ø± ÙƒÙˆÙƒ","show":false},{"id":53,"name":"Costa Rica","iso2":"CR","iso3":"CRI","phonecode":"506","capital":"San Jose","currency":"CRC","native":"Costa Rica","emoji":"ğŸ‡¨ğŸ‡·","ARName":"ÙƒÙˆØ³ØªØ§Ø±ÙŠÙƒØ§","show":true},{"id":54,"name":"Cote D'Ivoire (Ivory Coast)","iso2":"CI","iso3":"CIV","phonecode":"225","capital":"Yamoussoukro","currency":"XOF","native":null,"emoji":"ğŸ‡¨ğŸ‡®","ARName":"Ø³Ø§Ø­Ù„ Ø§Ù„Ø¹Ø§Ø¬","show":true},{"id":55,"name":"Croatia","iso2":"HR","iso3":"HRV","phonecode":"385","capital":"Zagreb","currency":"HRK","native":"Hrvatska","emoji":"ğŸ‡­ğŸ‡·","ARName":"ÙƒØ±ÙˆØ§ØªÙŠØ§","show":true},{"id":56,"name":"Cuba","iso2":"CU","iso3":"CUB","phonecode":"53","capital":"Havana","currency":"CUP","native":"Cuba","emoji":"ğŸ‡¨ğŸ‡º","ARName":"ÙƒÙˆØ¨Ø§","show":true},{"id":57,"name":"Cyprus","iso2":"CY","iso3":"CYP","phonecode":"357","capital":"Nicosia","currency":"EUR","native":"ÎšÏÏ€ÏÎ¿Ï‚","emoji":"ğŸ‡¨ğŸ‡¾","ARName":"Ù‚Ø¨Ø±Øµ","show":true},{"id":58,"name":"Czech Republic","iso2":"CZ","iso3":"CZE","phonecode":"420","capital":"Prague","currency":"CZK","native":"ÄŒeskÃ¡ republika","emoji":"ğŸ‡¨ğŸ‡¿","ARName":"Ø¬Ù…Ù‡ÙˆØ±ÙŠØ© Ø§Ù„ØªØ´ÙŠÙƒ","show":true},{"id":59,"name":"Denmark","iso2":"DK","iso3":"DNK","phonecode":"45","capital":"Copenhagen","currency":"DKK","native":"Danmark","emoji":"ğŸ‡©ğŸ‡°","ARName":"Ø§Ù„Ø¯Ù†Ù…Ø§Ø±Ùƒ","show":true},{"id":60,"name":"Djibouti","iso2":"DJ","iso3":"DJI","phonecode":"253","capital":"Djibouti","currency":"DJF","native":"Djibouti","emoji":"ğŸ‡©ğŸ‡¯","ARName":"Ø¬ÙŠØ¨ÙˆØªÙŠ","show":true},{"id":61,"name":"Dominica","iso2":"DM","iso3":"DMA","phonecode":"+1-767","capital":"Roseau","currency":"XCD","native":"Dominica","emoji":"ğŸ‡©ğŸ‡²","ARName":"Ø¯ÙˆÙ…ÙŠÙ†ÙŠÙƒØ§","show":true},{"id":62,"name":"Dominican Republic","iso2":"DO","iso3":"DOM","phonecode":"+1-809 and 1-829","capital":"Santo Domingo","currency":"DOP","native":"RepÃºblica Dominicana","emoji":"ğŸ‡©ğŸ‡´","ARName":"Ø¬Ù…Ù‡ÙˆØ±ÙŠØ© Ø§Ù„Ø¯ÙˆÙ…ÙŠÙ†ÙŠÙƒØ§Ù†","show":true},{"id":63,"name":"East Timor","iso2":"TL","iso3":"TLS","phonecode":"670","capital":"Dili","currency":"USD","native":"Timor-Leste","emoji":"ğŸ‡¹ğŸ‡±","ARName":"ØªÙŠÙ…ÙˆØ± Ø§Ù„Ø´Ø±Ù‚ÙŠØ©","show":true},{"id":64,"name":"Ecuador","iso2":"EC","iso3":"ECU","phonecode":"593","capital":"Quito","currency":"USD","native":"Ecuador","emoji":"ğŸ‡ªğŸ‡¨","ARName":"Ø§Ù„Ø¥ÙƒÙˆØ§Ø¯ÙˆØ±","show":true},{"id":65,"name":"Egypt","iso2":"EG","iso3":"EGY","phonecode":"20","capital":"Cairo","currency":"EGP","native":"Ù…ØµØ±","emoji":"ğŸ‡ªğŸ‡¬","ARName":"Ù…ØµØ±","show":true},{"id":66,"name":"El Salvador","iso2":"SV","iso3":"SLV","phonecode":"503","capital":"San Salvador","currency":"USD","native":"El Salvador","emoji":"ğŸ‡¸ğŸ‡»","ARName":"Ø§Ù„Ø³Ù„ÙØ§Ø¯ÙˆØ±","show":true},{"id":67,"name":"Equatorial Guinea","iso2":"GQ","iso3":"GNQ","phonecode":"240","capital":"Malabo","currency":"XAF","native":"Guinea Ecuatorial","emoji":"ğŸ‡¬ğŸ‡¶","ARName":"ØºÙŠÙ†ÙŠØ§ Ø§Ù„Ø§Ø³ØªÙˆØ§Ø¦ÙŠØ©","show":true},{"id":68,"name":"Eritrea","iso2":"ER","iso3":"ERI","phonecode":"291","capital":"Asmara","currency":"ERN","native":"áŠ¤áˆ­á‰µáˆ«","emoji":"ğŸ‡ªğŸ‡·","ARName":"Ø¥Ø±ÙŠØªØ±ÙŠØ§","show":true},{"id":69,"name":"Estonia","iso2":"EE","iso3":"EST","phonecode":"372","capital":"Tallinn","currency":"EUR","native":"Eesti","emoji":"ğŸ‡ªğŸ‡ª","ARName":"Ø¥Ø³ØªÙˆÙ†ÙŠØ§","show":true},{"id":70,"name":"Ethiopia","iso2":"ET","iso3":"ETH","phonecode":"251","capital":"Addis Ababa","currency":"ETB","native":"áŠ¢á‰µá‹®áŒµá‹«","emoji":"ğŸ‡ªğŸ‡¹","ARName":"Ø¥Ø«ÙŠÙˆØ¨ÙŠØ§","show":true},{"id":71,"name":"Falkland Islands","iso2":"FK","iso3":"FLK","phonecode":"500","capital":"Stanley","currency":"FKP","native":"Falkland Islands","emoji":"ğŸ‡«ğŸ‡°","ARName":"Ø¬Ø²Ø± ÙÙˆÙƒÙ„Ø§Ù†Ø¯","show":false},{"id":72,"name":"Faroe Islands","iso2":"FO","iso3":"FRO","phonecode":"298","capital":"Torshavn","currency":"DKK","native":"FÃ¸royar","emoji":"ğŸ‡«ğŸ‡´","ARName":"Ø¬Ø²Ø± ÙØ§Ø±Ùˆ","show":false},{"id":73,"name":"Fiji Islands","iso2":"FJ","iso3":"FJI","phonecode":"679","capital":"Suva","currency":"FJD","native":"Fiji","emoji":"ğŸ‡«ğŸ‡¯","ARName":"Ø¬Ø²Ø± ÙÙŠØ¬ÙŠ","show":true},{"id":74,"name":"Finland","iso2":"FI","iso3":"FIN","phonecode":"358","capital":"Helsinki","currency":"EUR","native":"Suomi","emoji":"ğŸ‡«ğŸ‡®","ARName":"ÙÙ†Ù„Ù†Ø¯Ø§","show":true},{"id":75,"name":"France","iso2":"FR","iso3":"FRA","phonecode":"33","capital":"Paris","currency":"EUR","native":"France","emoji":"ğŸ‡«ğŸ‡·","ARName":"ÙØ±Ù†Ø³Ø§","show":true},{"id":76,"name":"French Guiana","iso2":"GF","iso3":"GUF","phonecode":"594","capital":"Cayenne","currency":"EUR","native":"Guyane franÃ§aise","emoji":"ğŸ‡¬ğŸ‡«","ARName":"ØºÙŠØ§Ù†Ø§ Ø§Ù„ÙØ±Ù†Ø³ÙŠØ©","show":false},{"id":77,"name":"French Polynesia","iso2":"PF","iso3":"PYF","phonecode":"689","capital":"Papeete","currency":"XPF","native":"PolynÃ©sie franÃ§aise","emoji":"ğŸ‡µğŸ‡«","ARName":"Ø¨ÙˆÙ„ÙŠÙ†ÙŠØ²ÙŠØ§ Ø§Ù„ÙØ±Ù†Ø³ÙŠØ©","show":false},{"id":78,"name":"French Southern Territories","iso2":"TF","iso3":"ATF","phonecode":"262","capital":"Port-aux-Francais","currency":"EUR","native":"Territoire des Terres australes et antarctiques fr","emoji":"ğŸ‡¹ğŸ‡«","ARName":"Ø§Ù„Ø£Ù‚Ø§Ù„ÙŠÙ… Ø§Ù„Ø¬Ù†ÙˆØ¨ÙŠØ© Ø§Ù„ÙØ±Ù†Ø³ÙŠØ©","show":false},{"id":79,"name":"Gabon","iso2":"GA","iso3":"GAB","phonecode":"241","capital":"Libreville","currency":"XAF","native":"Gabon","emoji":"ğŸ‡¬ğŸ‡¦","ARName":"Ø§Ù„Ø¬Ø§Ø¨ÙˆÙ†","show":true},{"id":80,"name":"Gambia The","iso2":"GM","iso3":"GMB","phonecode":"220","capital":"Banjul","currency":"GMD","native":"Gambia","emoji":"ğŸ‡¬ğŸ‡²","ARName":"ØºØ§Ù…Ø¨ÙŠØ§","show":true},{"id":81,"name":"Georgia","iso2":"GE","iso3":"GEO","phonecode":"995","capital":"Tbilisi","currency":"GEL","native":"áƒ¡áƒáƒ¥áƒáƒ áƒ—áƒ•áƒ”áƒšáƒ","emoji":"ğŸ‡¬ğŸ‡ª","ARName":"Ø¬ÙˆØ±Ø¬ÙŠØ§","show":true},{"id":82,"name":"Germany","iso2":"DE","iso3":"DEU","phonecode":"49","capital":"Berlin","currency":"EUR","native":"Deutschland","emoji":"ğŸ‡©ğŸ‡ª","ARName":"Ø£Ù„Ù…Ø§Ù†ÙŠØ§","show":true},{"id":83,"name":"Ghana","iso2":"GH","iso3":"GHA","phonecode":"233","capital":"Accra","currency":"GHS","native":"Ghana","emoji":"ğŸ‡¬ğŸ‡­","ARName":"ØºØ§Ù†Ø§","show":true},{"id":84,"name":"Gibraltar","iso2":"GI","iso3":"GIB","phonecode":"350","capital":"Gibraltar","currency":"GIP","native":"Gibraltar","emoji":"ğŸ‡¬ğŸ‡®","ARName":"Ø¬Ø¨Ù„ Ø·Ø§Ø±Ù‚","show":false},{"id":85,"name":"Greece","iso2":"GR","iso3":"GRC","phonecode":"30","capital":"Athens","currency":"EUR","native":"Î•Î»Î»Î¬Î´Î±","emoji":"ğŸ‡¬ğŸ‡·","ARName":"Ø§Ù„ÙŠÙˆÙ†Ø§Ù†","show":true},{"id":86,"name":"Greenland","iso2":"GL","iso3":"GRL","phonecode":"299","capital":"Nuuk","currency":"DKK","native":"Kalaallit Nunaat","emoji":"ğŸ‡¬ğŸ‡±","ARName":"Ø¬Ø±ÙŠÙ†Ù„Ø§Ù†Ø¯","show":false},{"id":87,"name":"Grenada","iso2":"GD","iso3":"GRD","phonecode":"+1-473","capital":"St. George's","currency":"XCD","native":"Grenada","emoji":"ğŸ‡¬ğŸ‡©","ARName":"ØºØ±ÙŠÙ†Ø§Ø¯Ø§","show":true},{"id":88,"name":"Guadeloupe","iso2":"GP","iso3":"GLP","phonecode":"590","capital":"Basse-Terre","currency":"EUR","native":"Guadeloupe","emoji":"ğŸ‡¬ğŸ‡µ","ARName":"Ø¬ÙˆØ§Ø¯Ù„ÙˆØ¨","show":false},{"id":89,"name":"Guam","iso2":"GU","iso3":"GUM","phonecode":"+1-671","capital":"Hagatna","currency":"USD","native":"Guam","emoji":"ğŸ‡¬ğŸ‡º","ARName":"ØºÙˆØ§Ù…","show":false},{"id":90,"name":"Guatemala","iso2":"GT","iso3":"GTM","phonecode":"502","capital":"Guatemala City","currency":"GTQ","native":"Guatemala","emoji":"ğŸ‡¬ğŸ‡¹","ARName":"ØºÙˆØ§ØªÙŠÙ…Ø§Ù„Ø§","show":true},{"id":91,"name":"Guernsey and Alderney","iso2":"GG","iso3":"GGY","phonecode":"+44-1481","capital":"St Peter Port","currency":"GBP","native":"Guernsey","emoji":"ğŸ‡¬ğŸ‡¬","ARName":"ØºÙŠØ±Ù†Ø²ÙŠ ÙˆØ£Ù„Ø¯ÙŠØ±Ù†ÙŠ","show":false},{"id":92,"name":"Guinea","iso2":"GN","iso3":"GIN","phonecode":"224","capital":"Conakry","currency":"GNF","native":"GuinÃ©e","emoji":"ğŸ‡¬ğŸ‡³","ARName":"ØºÙŠÙ†ÙŠØ§","show":true},{"id":93,"name":"Guinea-Bissau","iso2":"GW","iso3":"GNB","phonecode":"245","capital":"Bissau","currency":"XOF","native":"GuinÃ©-Bissau","emoji":"ğŸ‡¬ğŸ‡¼","ARName":"ØºÙŠÙ†ÙŠØ§ Ø¨ÙŠØ³Ø§Ùˆ","show":true},{"id":94,"name":"Guyana","iso2":"GY","iso3":"GUY","phonecode":"592","capital":"Georgetown","currency":"GYD","native":"Guyana","emoji":"ğŸ‡¬ğŸ‡¾","ARName":"ØºÙŠØ§Ù†Ø§","show":true},{"id":95,"name":"Haiti","iso2":"HT","iso3":"HTI","phonecode":"509","capital":"Port-au-Prince","currency":"HTG","native":"HaÃ¯ti","emoji":"ğŸ‡­ğŸ‡¹","ARName":"Ù‡Ø§ÙŠØªÙŠ","show":true},{"id":96,"name":"Heard Island and McDonald Islands","iso2":"HM","iso3":"HMD","phonecode":"672","capital":"","currency":"AUD","native":"Heard Island and McDonald Islands","emoji":"ğŸ‡­ğŸ‡²","ARName":"Ø¬Ø²Ø± Ù‡ÙŠØ±Ø¯ ÙˆØ¬Ø²Ø± Ù…Ø§ÙƒØ¯ÙˆÙ†Ø§Ù„Ø¯","show":false},{"id":97,"name":"Honduras","iso2":"HN","iso3":"HND","phonecode":"504","capital":"Tegucigalpa","currency":"HNL","native":"Honduras","emoji":"ğŸ‡­ğŸ‡³","ARName":"Ù‡Ù†Ø¯ÙˆØ±Ø§Ø³","show":true},{"id":98,"name":"Hong Kong S.A.R.","iso2":"HK","iso3":"HKG","phonecode":"852","capital":"Hong Kong","currency":"HKD","native":"é¦™æ¸¯","emoji":"ğŸ‡­ğŸ‡°","ARName":"Ù…Ù†Ø·Ù‚Ø© Ù‡ÙˆÙ†Øº ÙƒÙˆÙ†Øº Ø§Ù„Ø¥Ø¯Ø§Ø±ÙŠØ© Ø§Ù„Ø®Ø§ØµØ©","show":true},{"id":99,"name":"Hungary","iso2":"HU","iso3":"HUN","phonecode":"36","capital":"Budapest","currency":"HUF","native":"MagyarorszÃ¡g","emoji":"ğŸ‡­ğŸ‡º","ARName":"Ø§Ù„Ù…Ø¬Ø±","show":true},{"id":100,"name":"Iceland","iso2":"IS","iso3":"ISL","phonecode":"354","capital":"Reykjavik","currency":"ISK","native":"Ãsland","emoji":"ğŸ‡®ğŸ‡¸","ARName":"Ø£ÙŠØ³Ù„Ù†Ø¯Ø§","show":true},{"id":101,"name":"India","iso2":"IN","iso3":"IND","phonecode":"91","capital":"New Delhi","currency":"INR","native":"à¤­à¤¾à¤°à¤¤","emoji":"ğŸ‡®ğŸ‡³","ARName":"Ø§Ù„Ù‡Ù†Ø¯","show":true},{"id":102,"name":"Indonesia","iso2":"ID","iso3":"IDN","phonecode":"62","capital":"Jakarta","currency":"IDR","native":"Indonesia","emoji":"ğŸ‡®ğŸ‡©","ARName":"Ø¥Ù†Ø¯ÙˆÙ†ÙŠØ³ÙŠØ§","show":true},{"id":103,"name":"Iran","iso2":"IR","iso3":"IRN","phonecode":"98","capital":"Tehran","currency":"IRR","native":"Ø¥ÙŠØ±Ø§Ù†","emoji":"ğŸ‡®ğŸ‡·","ARName":"Ø¥ÙŠØ±Ø§Ù†","show":true},{"id":104,"name":"Iraq","iso2":"IQ","iso3":"IRQ","phonecode":"964","capital":"Baghdad","currency":"IQD","native":"Ø§Ù„Ø¹Ø±Ø§Ù‚","emoji":"ğŸ‡®ğŸ‡¶","ARName":"Ø§Ù„Ø¹Ø±Ø§Ù‚","show":true},{"id":105,"name":"Ireland","iso2":"IE","iso3":"IRL","phonecode":"353","capital":"Dublin","currency":"EUR","native":"Ã‰ire","emoji":"ğŸ‡®ğŸ‡ª","ARName":"Ø£ÙŠØ±Ù„Ù†Ø¯Ø§","show":true},{"id":106,"name":"Israel","iso2":"IL","iso3":"ISR","phonecode":"972","capital":"Jerusalem","currency":"ILS","native":"×™Ö´×©Ö°×‚×¨Ö¸×Öµ×œ","emoji":"ğŸ‡®ğŸ‡±","ARName":"ÙÙ„Ø³Ø·ÙŠÙ† (Ø§Ù„Ø£Ø±Ø§Ø¶ÙŠ Ø§Ù„Ù…Ø­ØªÙ„Ø©)","show":true},{"id":107,"name":"Italy","iso2":"IT","iso3":"ITA","phonecode":"39","capital":"Rome","currency":"EUR","native":"Italia","emoji":"ğŸ‡®ğŸ‡¹","ARName":"Ø¥ÙŠØ·Ø§Ù„ÙŠØ§","show":true},{"id":108,"name":"Jamaica","iso2":"JM","iso3":"JAM","phonecode":"+1-876","capital":"Kingston","currency":"JMD","native":"Jamaica","emoji":"ğŸ‡¯ğŸ‡²","ARName":"Ø¬Ø§Ù…Ø§ÙŠÙƒØ§","show":true},{"id":109,"name":"Japan","iso2":"JP","iso3":"JPN","phonecode":"81","capital":"Tokyo","currency":"JPY","native":"æ—¥æœ¬","emoji":"ğŸ‡¯ğŸ‡µ","ARName":"Ø§Ù„ÙŠØ§Ø¨Ø§Ù†","show":true},{"id":110,"name":"Jersey","iso2":"JE","iso3":"JEY","phonecode":"+44-1534","capital":"Saint Helier","currency":"GBP","native":"Jersey","emoji":"ğŸ‡¯ğŸ‡ª","ARName":"Ø¬ÙŠØ±Ø³ÙŠ","show":false},{"id":111,"name":"Jordan","iso2":"JO","iso3":"JOR","phonecode":"962","capital":"Amman","currency":"JOD","native":"Ø§Ù„Ø£Ø±Ø¯Ù†","emoji":"ğŸ‡¯ğŸ‡´","ARName":"Ø§Ù„Ø£Ø±Ø¯Ù†","show":true},{"id":112,"name":"Kazakhstan","iso2":"KZ","iso3":"KAZ","phonecode":"7","capital":"Astana","currency":"KZT","native":"ÒšĞ°Ğ·Ğ°Ò›ÑÑ‚Ğ°Ğ½","emoji":"ğŸ‡°ğŸ‡¿","ARName":"ÙƒØ§Ø²Ø§Ø®Ø³ØªØ§Ù†","show":true},{"id":113,"name":"Kenya","iso2":"KE","iso3":"KEN","phonecode":"254","capital":"Nairobi","currency":"KES","native":"Kenya","emoji":"ğŸ‡°ğŸ‡ª","ARName":"ÙƒÙŠÙ†ÙŠØ§","show":true},{"id":114,"name":"Kiribati","iso2":"KI","iso3":"KIR","phonecode":"686","capital":"Tarawa","currency":"AUD","native":"Kiribati","emoji":"ğŸ‡°ğŸ‡®","ARName":"ÙƒÙŠØ±ÙŠØ¨Ø§ØªÙŠ","show":true},{"id":115,"name":"North Korea","iso2":"KP","iso3":"PRK","phonecode":"850","capital":"Pyongyang","currency":"KPW","native":"ë¶í•œ","emoji":"ğŸ‡°ğŸ‡µ","ARName":"ÙƒÙˆØ±ÙŠØ§ Ø§Ù„Ø´Ù…Ø§Ù„ÙŠØ©","show":true},{"id":116,"name":"South Korea","iso2":"KR","iso3":"KOR","phonecode":"82","capital":"Seoul","currency":"KRW","native":"ëŒ€í•œë¯¼êµ­","emoji":"ğŸ‡°ğŸ‡·","ARName":"ÙƒÙˆØ±ÙŠØ§ Ø§Ù„Ø¬Ù†ÙˆØ¨ÙŠØ©","show":true},{"id":117,"name":"Kuwait","iso2":"KW","iso3":"KWT","phonecode":"965","capital":"Kuwait City","currency":"KWD","native":"Ø§Ù„ÙƒÙˆÙŠØª","emoji":"ğŸ‡°ğŸ‡¼","ARName":"Ø§Ù„ÙƒÙˆÙŠØª","show":true},{"id":118,"name":"Kyrgyzstan","iso2":"KG","iso3":"KGZ","phonecode":"996","capital":"Bishkek","currency":"KGS","native":"ĞšÑ‹Ñ€Ğ³Ñ‹Ğ·ÑÑ‚Ğ°Ğ½","emoji":"ğŸ‡°ğŸ‡¬","ARName":"Ù‚ÙŠØ±ØºÙŠØ²Ø³ØªØ§Ù†","show":true},{"id":119,"name":"Laos","iso2":"LA","iso3":"LAO","phonecode":"856","capital":"Vientiane","currency":"LAK","native":"àºªàº›àº›àº¥àº²àº§","emoji":"ğŸ‡±ğŸ‡¦","ARName":"Ù„Ø§ÙˆØ³","show":true},{"id":120,"name":"Latvia","iso2":"LV","iso3":"LVA","phonecode":"371","capital":"Riga","currency":"EUR","native":"Latvija","emoji":"ğŸ‡±ğŸ‡»","ARName":"Ù„Ø§ØªÙÙŠØ§","show":true},{"id":121,"name":"Lebanon","iso2":"LB","iso3":"LBN","phonecode":"961","capital":"Beirut","currency":"LBP","native":"Ù„Ø¨Ù†Ø§Ù†","emoji":"ğŸ‡±ğŸ‡§","ARName":"Ù„Ø¨Ù†Ø§Ù†","show":true},{"id":122,"name":"Lesotho","iso2":"LS","iso3":"LSO","phonecode":"266","capital":"Maseru","currency":"LSL","native":"Lesotho","emoji":"ğŸ‡±ğŸ‡¸","ARName":"Ù„ÙŠØ³ÙˆØªÙˆ","show":true},{"id":123,"name":"Liberia","iso2":"LR","iso3":"LBR","phonecode":"231","capital":"Monrovia","currency":"LRD","native":"Liberia","emoji":"ğŸ‡±ğŸ‡·","ARName":"Ù„ÙŠØ¨ÙŠØ±ÙŠØ§","show":true},{"id":124,"name":"Libya","iso2":"LY","iso3":"LBY","phonecode":"218","capital":"Tripolis","currency":"LYD","native":"Ù„ÙŠØ¨ÙŠØ§","emoji":"ğŸ‡±ğŸ‡¾","ARName":"Ù„ÙŠØ¨ÙŠØ§","show":true},{"id":125,"name":"Liechtenstein","iso2":"LI","iso3":"LIE","phonecode":"423","capital":"Vaduz","currency":"CHF","native":"Liechtenstein","emoji":"ğŸ‡±ğŸ‡®","ARName":"Ù„ÙŠØ®ØªÙ†Ø´ØªØ§ÙŠÙ†","show":true},{"id":126,"name":"Lithuania","iso2":"LT","iso3":"LTU","phonecode":"370","capital":"Vilnius","currency":"EUR","native":"Lietuva","emoji":"ğŸ‡±ğŸ‡¹","ARName":"Ù„ÙŠØªÙˆØ§Ù†ÙŠØ§","show":true},{"id":127,"name":"Luxembourg","iso2":"LU","iso3":"LUX","phonecode":"352","capital":"Luxembourg","currency":"EUR","native":"Luxembourg","emoji":"ğŸ‡±ğŸ‡º","ARName":"Ù„ÙˆÙƒØ³Ù…Ø¨ÙˆØ±Øº","show":true},{"id":128,"name":"Macau S.A.R.","iso2":"MO","iso3":"MAC","phonecode":"853","capital":"Macao","currency":"MOP","native":"æ¾³é–€","emoji":"ğŸ‡²ğŸ‡´","ARName":"Ù…Ù†Ø·Ù‚Ø© Ù…Ø§ÙƒØ§Ùˆ Ø§Ù„Ø¥Ø¯Ø§Ø±ÙŠØ© Ø§Ù„Ø®Ø§ØµØ©","show":false},{"id":129,"name":"North Macedonia","iso2":"MK","iso3":"MKD","phonecode":"389","capital":"Skopje","currency":"MKD","native":"Ğ¡ĞµĞ²ĞµÑ€Ğ½Ğ° ĞœĞ°ĞºĞµĞ´Ğ¾Ğ½Ğ¸Ñ˜Ğ°","emoji":"ğŸ‡²ğŸ‡°","ARName":"Ù…Ù‚Ø¯ÙˆÙ†ÙŠØ§ Ø§Ù„Ø´Ù…Ø§Ù„ÙŠØ©","show":true},{"id":130,"name":"Madagascar","iso2":"MG","iso3":"MDG","phonecode":"261","capital":"Antananarivo","currency":"MGA","native":"Madagasikara","emoji":"ğŸ‡²ğŸ‡¬","ARName":"Ù…Ø¯ØºØ´Ù‚Ø±","show":true},{"id":131,"name":"Malawi","iso2":"MW","iso3":"MWI","phonecode":"265","capital":"Lilongwe","currency":"MWK","native":"Malawi","emoji":"ğŸ‡²ğŸ‡¼","ARName":"Ù…Ù„Ø§ÙˆÙŠ","show":true},{"id":132,"name":"Malaysia","iso2":"MY","iso3":"MYS","phonecode":"60","capital":"Kuala Lumpur","currency":"MYR","native":"Malaysia","emoji":"ğŸ‡²ğŸ‡¾","ARName":"Ù…Ø§Ù„ÙŠØ²ÙŠØ§","show":true},{"id":133,"name":"Maldives","iso2":"MV","iso3":"MDV","phonecode":"960","capital":"Male","currency":"MVR","native":"Maldives","emoji":"ğŸ‡²ğŸ‡»","ARName":"Ø¬Ø²Ø± Ø§Ù„Ù…Ø§Ù„Ø¯ÙŠÙ","show":true},{"id":134,"name":"Mali","iso2":"ML","iso3":"MLI","phonecode":"223","capital":"Bamako","currency":"XOF","native":"Mali","emoji":"ğŸ‡²ğŸ‡±","ARName":"Ù…Ø§Ù„ÙŠ","show":true},{"id":135,"name":"Malta","iso2":"MT","iso3":"MLT","phonecode":"356","capital":"Valletta","currency":"EUR","native":"Malta","emoji":"ğŸ‡²ğŸ‡¹","ARName":"Ù…Ø§Ù„Ø·Ø§","show":true},{"id":136,"name":"Man (Isle of)","iso2":"IM","iso3":"IMN","phonecode":"+44-1624","capital":"Douglas, Isle of Man","currency":"GBP","native":"Isle of Man","emoji":"ğŸ‡®ğŸ‡²","ARName":"Ù…Ø§Ù† (Ø¬Ø²ÙŠØ±Ø©)","show":false},{"id":137,"name":"Marshall Islands","iso2":"MH","iso3":"MHL","phonecode":"692","capital":"Majuro","currency":"USD","native":"MÌ§ajeÄ¼","emoji":"ğŸ‡²ğŸ‡­","ARName":"Ø¬Ø²Ø± Ù…Ø§Ø±Ø´Ø§Ù„","show":true},{"id":138,"name":"Martinique","iso2":"MQ","iso3":"MTQ","phonecode":"596","capital":"Fort-de-France","currency":"EUR","native":"Martinique","emoji":"ğŸ‡²ğŸ‡¶","ARName":"Ù…Ø§Ø±ØªÙŠÙ†ÙŠÙƒ","show":false},{"id":139,"name":"Mauritania","iso2":"MR","iso3":"MRT","phonecode":"222","capital":"Nouakchott","currency":"MRO","native":"Ù…ÙˆØ±ÙŠØªØ§Ù†ÙŠØ§","emoji":"ğŸ‡²ğŸ‡·","ARName":"Ù…ÙˆØ±ÙŠØªØ§Ù†ÙŠØ§","show":true},{"id":140,"name":"Mauritius","iso2":"MU","iso3":"MUS","phonecode":"230","capital":"Port Louis","currency":"MUR","native":"Maurice","emoji":"ğŸ‡²ğŸ‡º","ARName":"Ù…ÙˆØ±ÙŠØ´ÙŠÙˆØ³","show":true},{"id":141,"name":"Mayotte","iso2":"YT","iso3":"MYT","phonecode":"262","capital":"Mamoudzou","currency":"EUR","native":"Mayotte","emoji":"ğŸ‡¾ğŸ‡¹","ARName":"Ù…Ø§ÙŠÙˆØª","show":false},{"id":142,"name":"Mexico","iso2":"MX","iso3":"MEX","phonecode":"52","capital":"Ciudad de MÃ©xico","currency":"MXN","native":"MÃ©xico","emoji":"ğŸ‡²ğŸ‡½","ARName":"Ø§Ù„Ù…ÙƒØ³ÙŠÙƒ","show":true},{"id":143,"name":"Micronesia","iso2":"FM","iso3":"FSM","phonecode":"691","capital":"Palikir","currency":"USD","native":"Micronesia","emoji":"ğŸ‡«ğŸ‡²","ARName":"Ù…ÙŠÙƒØ±ÙˆÙ†ÙŠØ²ÙŠØ§","show":true},{"id":144,"name":"Moldova","iso2":"MD","iso3":"MDA","phonecode":"373","capital":"Chisinau","currency":"MDL","native":"Moldova","emoji":"ğŸ‡²ğŸ‡©","ARName":"Ù…ÙˆÙ„Ø¯ÙˆÙØ§","show":true},{"id":145,"name":"Monaco","iso2":"MC","iso3":"MCO","phonecode":"377","capital":"Monaco","currency":"EUR","native":"Monaco","emoji":"ğŸ‡²ğŸ‡¨","ARName":"Ù…ÙˆÙ†Ø§ÙƒÙˆ","show":true},{"id":146,"name":"Mongolia","iso2":"MN","iso3":"MNG","phonecode":"976","capital":"Ulan Bator","currency":"MNT","native":"ĞœĞ¾Ğ½Ğ³Ğ¾Ğ» ÑƒĞ»Ñ","emoji":"ğŸ‡²ğŸ‡³","ARName":"Ù…Ù†ØºÙˆÙ„ÙŠØ§","show":true},{"id":147,"name":"Montenegro","iso2":"ME","iso3":"MNE","phonecode":"382","capital":"Podgorica","currency":"EUR","native":"Ğ¦Ñ€Ğ½Ğ° Ğ“Ğ¾Ñ€Ğ°","emoji":"ğŸ‡²ğŸ‡ª","ARName":"Ø§Ù„Ø¬Ø¨Ù„ Ø§Ù„Ø£Ø³ÙˆØ¯","show":true},{"id":148,"name":"Montserrat","iso2":"MS","iso3":"MSR","phonecode":"+1-664","capital":"Plymouth","currency":"XCD","native":"Montserrat","emoji":"ğŸ‡²ğŸ‡¸","ARName":"Ù…ÙˆÙ†ØªØ³ÙŠØ±Ø§Øª","show":false},{"id":149,"name":"Morocco","iso2":"MA","iso3":"MAR","phonecode":"212","capital":"Rabat","currency":"MAD","native":"Ø§Ù„Ù…ØºØ±Ø¨","emoji":"ğŸ‡²ğŸ‡¦","ARName":"Ø§Ù„Ù…ØºØ±Ø¨","show":true},{"id":150,"name":"Mozambique","iso2":"MZ","iso3":"MOZ","phonecode":"258","capital":"Maputo","currency":"MZN","native":"MoÃ§ambique","emoji":"ğŸ‡²ğŸ‡¿","ARName":"Ù…ÙˆØ²Ù…Ø¨ÙŠÙ‚","show":true},{"id":151,"name":"Myanmar","iso2":"MM","iso3":"MMR","phonecode":"95","capital":"Nay Pyi Taw","currency":"MMK","native":"á€™á€¼á€”á€ºá€™á€¬","emoji":"ğŸ‡²ğŸ‡²","ARName":"Ù…ÙŠØ§Ù†Ù…Ø§Ø±","show":true},{"id":152,"name":"Namibia","iso2":"NA","iso3":"NAM","phonecode":"264","capital":"Windhoek","currency":"NAD","native":"Namibia","emoji":"ğŸ‡³ğŸ‡¦","ARName":"Ù†Ø§Ù…ÙŠØ¨ÙŠØ§","show":true},{"id":153,"name":"Nauru","iso2":"NR","iso3":"NRU","phonecode":"674","capital":"Yaren","currency":"AUD","native":"Nauru","emoji":"ğŸ‡³ğŸ‡·","ARName":"Ù†Ø§ÙˆØ±Ùˆ","show":true},{"id":154,"name":"Nepal","iso2":"NP","iso3":"NPL","phonecode":"977","capital":"Kathmandu","currency":"NPR","native":"à¤¨à¤ªà¤²","emoji":"ğŸ‡³ğŸ‡µ","ARName":"Ù†ÙŠØ¨Ø§Ù„","show":true},{"id":155,"name":"Bonaire, Sint Eustatius and Saba","iso2":"BQ","iso3":"BES","phonecode":"599","capital":"Kralendijk","currency":"USD","native":"Caribisch Nederland","emoji":"ğŸ‡§ğŸ‡¶","ARName":"Ø¨ÙˆÙ†ÙŠØ±ØŒ Ø³ÙŠÙ†Øª Ø£ÙˆØ³ØªØ§ØªÙŠÙˆØ³ ÙˆØ³Ø§Ø¨Ø§","show":true},{"id":156,"name":"Netherlands","iso2":"NL","iso3":"NLD","phonecode":"31","capital":"Amsterdam","currency":"EUR","native":"Nederland","emoji":"ğŸ‡³ğŸ‡±","ARName":"Ù‡ÙˆÙ„Ù†Ø¯Ø§","show":true},{"id":157,"name":"New Caledonia","iso2":"NC","iso3":"NCL","phonecode":"687","capital":"Noumea","currency":"XPF","native":"Nouvelle-CalÃ©donie","emoji":"ğŸ‡³ğŸ‡¨","ARName":"ÙƒØ§Ù„ÙŠØ¯ÙˆÙ†ÙŠØ§ Ø§Ù„Ø¬Ø¯ÙŠØ¯Ø©","show":false},{"id":158,"name":"New Zealand","iso2":"NZ","iso3":"NZL","phonecode":"64","capital":"Wellington","currency":"NZD","native":"New Zealand","emoji":"ğŸ‡³ğŸ‡¿","ARName":"Ù†ÙŠÙˆØ²ÙŠÙ„Ù†Ø¯Ø§","show":true},{"id":159,"name":"Nicaragua","iso2":"NI","iso3":"NIC","phonecode":"505","capital":"Managua","currency":"NIO","native":"Nicaragua","emoji":"ğŸ‡³ğŸ‡®","ARName":"Ù†ÙŠÙƒØ§Ø±Ø§ØºÙˆØ§","show":true},{"id":160,"name":"Niger","iso2":"NE","iso3":"NER","phonecode":"227","capital":"Niamey","currency":"XOF","native":"Niger","emoji":"ğŸ‡³ğŸ‡ª","ARName":"Ø§Ù„Ù†ÙŠØ¬Ø±","show":true},{"id":161,"name":"Nigeria","iso2":"NG","iso3":"NGA","phonecode":"234","capital":"Abuja","currency":"NGN","native":"Nigeria","emoji":"ğŸ‡³ğŸ‡¬","ARName":"Ù†ÙŠØ¬ÙŠØ±ÙŠØ§","show":true},{"id":162,"name":"Niue","iso2":"NU","iso3":"NIU","phonecode":"683","capital":"Alofi","currency":"NZD","native":"NiuÄ“","emoji":"ğŸ‡³ğŸ‡º","ARName":"Ù†ÙŠÙˆÙŠ","show":false},{"id":163,"name":"Norfolk Island","iso2":"NF","iso3":"NFK","phonecode":"672","capital":"Kingston","currency":"AUD","native":"Norfolk Island","emoji":"ğŸ‡³ğŸ‡«","ARName":"Ø¬Ø²ÙŠØ±Ø© Ù†ÙˆØ±ÙÙˆÙ„Ùƒ","show":false},{"id":164,"name":"Northern Mariana Islands","iso2":"MP","iso3":"MNP","phonecode":"+1-670","capital":"Saipan","currency":"USD","native":"Northern Mariana Islands","emoji":"ğŸ‡²ğŸ‡µ","ARName":"Ø¬Ø²Ø± Ù…Ø§Ø±ÙŠØ§Ù†Ø§ Ø§Ù„Ø´Ù…Ø§Ù„ÙŠØ©","show":false},{"id":165,"name":"Norway","iso2":"NO","iso3":"NOR","phonecode":"47","capital":"Oslo","currency":"NOK","native":"Norge","emoji":"ğŸ‡³ğŸ‡´","ARName":"Ø§Ù„Ù†Ø±ÙˆÙŠØ¬","show":true},{"id":166,"name":"Oman","iso2":"OM","iso3":"OMN","phonecode":"968","capital":"Muscat","currency":"OMR","native":"Ø¹Ù…Ø§Ù†","emoji":"ğŸ‡´ğŸ‡²","ARName":"Ø¹Ù…Ø§Ù†","show":true},{"id":167,"name":"Pakistan","iso2":"PK","iso3":"PAK","phonecode":"92","capital":"Islamabad","currency":"PKR","native":"Pakistan","emoji":"ğŸ‡µğŸ‡°","ARName":"Ø¨Ø§ÙƒØ³ØªØ§Ù†","show":true},{"id":168,"name":"Palau","iso2":"PW","iso3":"PLW","phonecode":"680","capital":"Melekeok","currency":"USD","native":"Palau","emoji":"ğŸ‡µğŸ‡¼","ARName":"Ø¨Ø§Ù„Ø§Ùˆ","show":true},{"id":169,"name":"Palestinian Territory Occupied","iso2":"PS","iso3":"PSE","phonecode":"970","capital":"East Jerusalem","currency":"ILS","native":"ÙÙ„Ø³Ø·ÙŠÙ†","emoji":"ğŸ‡µğŸ‡¸","ARName":"ÙÙ„Ø³Ø·ÙŠÙ† (Ø§Ù„Ø¶ÙØ© Ø§Ù„ØºØ±Ø¨ÙŠØ© ÙˆÙ‚Ø·Ø§Ø¹ ØºØ²Ø©)","show":true},{"id":170,"name":"Panama","iso2":"PA","iso3":"PAN","phonecode":"507","capital":"Panama City","currency":"PAB","native":"PanamÃ¡","emoji":"ğŸ‡µğŸ‡¦","ARName":"Ø¨Ù†Ù…Ø§","show":true},{"id":171,"name":"Papua new Guinea","iso2":"PG","iso3":"PNG","phonecode":"675","capital":"Port Moresby","currency":"PGK","native":"Papua Niugini","emoji":"ğŸ‡µğŸ‡¬","ARName":"Ø¨Ø§Ø¨ÙˆØ§ ØºÙŠÙ†ÙŠØ§ Ø§Ù„Ø¬Ø¯ÙŠØ¯Ø©","show":true},{"id":172,"name":"Paraguay","iso2":"PY","iso3":"PRY","phonecode":"595","capital":"Asuncion","currency":"PYG","native":"Paraguay","emoji":"ğŸ‡µğŸ‡¾","ARName":"Ø¨Ø§Ø±Ø§ØºÙˆØ§ÙŠ","show":true},{"id":173,"name":"Peru","iso2":"PE","iso3":"PER","phonecode":"51","capital":"Lima","currency":"PEN","native":"PerÃº","emoji":"ğŸ‡µğŸ‡ª","ARName":"Ø¨ÙŠØ±Ùˆ","show":true},{"id":174,"name":"Philippines","iso2":"PH","iso3":"PHL","phonecode":"63","capital":"Manila","currency":"PHP","native":"Pilipinas","emoji":"ğŸ‡µğŸ‡­","ARName":"Ø§Ù„ÙÙ„Ø¨ÙŠÙ†","show":true},{"id":175,"name":"Pitcairn Island","iso2":"PN","iso3":"PCN","phonecode":"870","capital":"Adamstown","currency":"NZD","native":"Pitcairn Islands","emoji":"ğŸ‡µğŸ‡³","ARName":"Ø¬Ø²ÙŠØ±Ø© Ø¨ÙŠØªÙƒÙŠØ±Ù†","show":false},{"id":176,"name":"Poland","iso2":"PL","iso3":"POL","phonecode":"48","capital":"Warsaw","currency":"PLN","native":"Polska","emoji":"ğŸ‡µğŸ‡±","ARName":"Ø¨ÙˆÙ„Ù†Ø¯Ø§","show":true},{"id":177,"name":"Portugal","iso2":"PT","iso3":"PRT","phonecode":"351","capital":"Lisbon","currency":"EUR","native":"Portugal","emoji":"ğŸ‡µğŸ‡¹","ARName":"Ø§Ù„Ø¨Ø±ØªØºØ§Ù„","show":true},{"id":178,"name":"Puerto Rico","iso2":"PR","iso3":"PRI","phonecode":"+1-787 and 1-939","capital":"San Juan","currency":"USD","native":"Puerto Rico","emoji":"ğŸ‡µğŸ‡·","ARName":"Ø¨ÙˆØ±ØªÙˆØ±ÙŠÙƒÙˆ","show":true},{"id":179,"name":"Qatar","iso2":"QA","iso3":"QAT","phonecode":"974","capital":"Doha","currency":"QAR","native":"Ù‚Ø·Ø±","emoji":"ğŸ‡¶ğŸ‡¦","ARName":"Ù‚Ø·Ø±","show":true},{"id":180,"name":"Reunion","iso2":"RE","iso3":"REU","phonecode":"262","capital":"Saint-Denis","currency":"EUR","native":"La RÃ©union","emoji":"ğŸ‡·ğŸ‡ª","ARName":"Ø±ÙŠÙˆÙ†ÙŠÙˆÙ†","show":false},{"id":181,"name":"Romania","iso2":"RO","iso3":"ROU","phonecode":"40","capital":"Bucharest","currency":"RON","native":"RomÃ¢nia","emoji":"ğŸ‡·ğŸ‡´","ARName":"Ø±ÙˆÙ…Ø§Ù†ÙŠØ§","show":true},{"id":182,"name":"Russia","iso2":"RU","iso3":"RUS","phonecode":"7","capital":"Moscow","currency":"RUB","native":"Ğ Ğ¾ÑÑĞ¸Ñ","emoji":"ğŸ‡·ğŸ‡º","ARName":"Ø±ÙˆØ³ÙŠØ§","show":true},{"id":183,"name":"Rwanda","iso2":"RW","iso3":"RWA","phonecode":"250","capital":"Kigali","currency":"RWF","native":"Rwanda","emoji":"ğŸ‡·ğŸ‡¼","ARName":"Ø±ÙˆØ§Ù†Ø¯Ø§","show":true},{"id":184,"name":"Saint Helena","iso2":"SH","iso3":"SHN","phonecode":"290","capital":"Jamestown","currency":"SHP","native":"Saint Helena","emoji":"ğŸ‡¸ğŸ‡­","ARName":"Ø³Ø§Ù†Øª Ù‡ÙŠÙ„ÙŠÙ†Ø§","show":false},{"id":185,"name":"Saint Kitts And Nevis","iso2":"KN","iso3":"KNA","phonecode":"+1-869","capital":"Basseterre","currency":"XCD","native":"Saint Kitts and Nevis","emoji":"ğŸ‡°ğŸ‡³","ARName":"Ø³Ø§Ù†Øª ÙƒÙŠØªØ³ ÙˆÙ†ÙŠÙÙŠØ³","show":true},{"id":186,"name":"Saint Lucia","iso2":"LC","iso3":"LCA","phonecode":"+1-758","capital":"Castries","currency":"XCD","native":"Saint Lucia","emoji":"ğŸ‡±ğŸ‡¨","ARName":"Ø³Ø§Ù†Øª Ù„ÙˆØ³ÙŠØ§","show":true},{"id":187,"name":"Saint Pierre and Miquelon","iso2":"PM","iso3":"SPM","phonecode":"508","capital":"Saint-Pierre","currency":"EUR","native":"Saint-Pierre-et-Miquelon","emoji":"ğŸ‡µğŸ‡²","ARName":"Ø³Ø§Ù† Ø¨ÙŠÙŠØ± ÙˆÙ…ÙŠÙƒÙ„ÙˆÙ†","show":false},{"id":188,"name":"Saint Vincent And The Grenadines","iso2":"VC","iso3":"VCT","phonecode":"+1-784","capital":"Kingstown","currency":"XCD","native":"Saint Vincent and the Grenadines","emoji":"ğŸ‡»ğŸ‡¨","ARName":"Ø³Ø§Ù†Øª ÙÙ†Ø³Ù†Øª ÙˆØ¬Ø²Ø± ØºØ±ÙŠÙ†Ø§Ø¯ÙŠÙ†","show":true},{"id":189,"name":"Saint-Barthelemy","iso2":"BL","iso3":"BLM","phonecode":"590","capital":"Gustavia","currency":"EUR","native":"Saint-BarthÃ©lemy","emoji":"ğŸ‡§ğŸ‡±","ARName":"Ø³Ø§Ù† Ø¨Ø§Ø±ØªÙŠÙ„ÙŠÙ…ÙŠ","show":false},{"id":190,"name":"Saint-Martin (French part)","iso2":"MF","iso3":"MAF","phonecode":"590","capital":"Marigot","currency":"EUR","native":"Saint-Martin","emoji":"ğŸ‡²ğŸ‡«","ARName":"Ø³Ø§Ù† Ù…Ø§Ø±ØªÙ† (Ø§Ù„Ø¬Ø²Ø¡ Ø§Ù„ÙØ±Ù†Ø³ÙŠ)","show":false},{"id":191,"name":"Samoa","iso2":"WS","iso3":"WSM","phonecode":"685","capital":"Apia","currency":"WST","native":"Samoa","emoji":"ğŸ‡¼ğŸ‡¸","ARName":"Ø³Ø§Ù…ÙˆØ§","show":true},{"id":192,"name":"San Marino","iso2":"SM","iso3":"SMR","phonecode":"378","capital":"San Marino","currency":"EUR","native":"San Marino","emoji":"ğŸ‡¸ğŸ‡²","ARName":"Ø³Ø§Ù† Ù…Ø§Ø±ÙŠÙ†Ùˆ","show":true},{"id":193,"name":"Sao Tome and Principe","iso2":"ST","iso3":"STP","phonecode":"239","capital":"Sao Tome","currency":"STD","native":"SÃ£o TomÃ© e PrÃ­ncipe","emoji":"ğŸ‡¸ğŸ‡¹","ARName":"Ø³Ø§Ùˆ ØªÙˆÙ…ÙŠ ÙˆØ¨Ø±ÙŠÙ†Ø³ÙŠØ¨ÙŠ","show":true},{"id":194,"name":"Saudi Arabia","iso2":"SA","iso3":"SAU","phonecode":"966","capital":"Riyadh","currency":"SAR","native":"Ø§Ù„Ù…Ù…Ù„ÙƒØ© Ø§Ù„Ø¹Ø±Ø¨ÙŠØ© Ø§Ù„Ø³Ø¹ÙˆØ¯ÙŠØ©","emoji":"ğŸ‡¸ğŸ‡¦","ARName":"Ø§Ù„Ù…Ù…Ù„ÙƒØ© Ø§Ù„Ø¹Ø±Ø¨ÙŠØ© Ø§Ù„Ø³Ø¹ÙˆØ¯ÙŠØ©","show":true},{"id":195,"name":"Senegal","iso2":"SN","iso3":"SEN","phonecode":"221","capital":"Dakar","currency":"XOF","native":"SÃ©nÃ©gal","emoji":"ğŸ‡¸ğŸ‡³","ARName":"Ø§Ù„Ø³Ù†ØºØ§Ù„","show":true},{"id":196,"name":"Serbia","iso2":"RS","iso3":"SRB","phonecode":"381","capital":"Belgrade","currency":"RSD","native":"Ğ¡Ñ€Ğ±Ğ¸Ñ˜Ğ°","emoji":"ğŸ‡·ğŸ‡¸","ARName":"ØµØ±Ø¨ÙŠØ§","show":true},{"id":197,"name":"Seychelles","iso2":"SC","iso3":"SYC","phonecode":"248","capital":"Victoria","currency":"SCR","native":"Seychelles","emoji":"ğŸ‡¸ğŸ‡¨","ARName":"Ø³ÙŠØ´ÙŠÙ„","show":true},{"id":198,"name":"Sierra Leone","iso2":"SL","iso3":"SLE","phonecode":"232","capital":"Freetown","currency":"SLL","native":"Sierra Leone","emoji":"ğŸ‡¸ğŸ‡±","ARName":"Ø³ÙŠØ±Ø§Ù„ÙŠÙˆÙ†","show":true},{"id":199,"name":"Singapore","iso2":"SG","iso3":"SGP","phonecode":"65","capital":"Singapur","currency":"SGD","native":"Singapore","emoji":"ğŸ‡¸ğŸ‡¬","ARName":"Ø³Ù†ØºØ§ÙÙˆØ±Ø©","show":true},{"id":200,"name":"Slovakia","iso2":"SK","iso3":"SVK","phonecode":"421","capital":"Bratislava","currency":"EUR","native":"Slovensko","emoji":"ğŸ‡¸ğŸ‡°","ARName":"Ø³Ù„ÙˆÙØ§ÙƒÙŠØ§","show":true},{"id":201,"name":"Slovenia","iso2":"SI","iso3":"SVN","phonecode":"386","capital":"Ljubljana","currency":"EUR","native":"Slovenija","emoji":"ğŸ‡¸ğŸ‡®","ARName":"Ø³Ù„ÙˆÙÙŠÙ†ÙŠØ§","show":true},{"id":202,"name":"Solomon Islands","iso2":"SB","iso3":"SLB","phonecode":"677","capital":"Honiara","currency":"SBD","native":"Solomon Islands","emoji":"ğŸ‡¸ğŸ‡§","ARName":"Ø¬Ø²Ø± Ø³Ù„ÙŠÙ…Ø§Ù†","show":true},{"id":203,"name":"Somalia","iso2":"SO","iso3":"SOM","phonecode":"252","capital":"Mogadishu","currency":"SOS","native":"Soomaaliya","emoji":"ğŸ‡¸ğŸ‡´","ARName":"Ø§Ù„ØµÙˆÙ…Ø§Ù„","show":true},{"id":204,"name":"South Africa","iso2":"ZA","iso3":"ZAF","phonecode":"27","capital":"Pretoria","currency":"ZAR","native":"South Africa","emoji":"ğŸ‡¿ğŸ‡¦","ARName":"Ø¬Ù†ÙˆØ¨ Ø£ÙØ±ÙŠÙ‚ÙŠØ§","show":true},{"id":205,"name":"South Georgia","iso2":"GS","iso3":"SGS","phonecode":"500","capital":"Grytviken","currency":"GBP","native":"South Georgia","emoji":"ğŸ‡¬ğŸ‡¸","ARName":"Ø¬ÙˆØ±Ø¬ÙŠØ§ Ø§Ù„Ø¬Ù†ÙˆØ¨ÙŠØ©","show":false},{"id":206,"name":"South Sudan","iso2":"SS","iso3":"SSD","phonecode":"211","capital":"Juba","currency":"SSP","native":"South Sudan","emoji":"ğŸ‡¸ğŸ‡¸","ARName":"Ø¬Ù†ÙˆØ¨ Ø§Ù„Ø³ÙˆØ¯Ø§Ù†","show":true},{"id":207,"name":"Spain","iso2":"ES","iso3":"ESP","phonecode":"34","capital":"Madrid","currency":"EUR","native":"EspaÃ±a","emoji":"ğŸ‡ªğŸ‡¸","ARName":"Ø¥Ø³Ø¨Ø§Ù†ÙŠØ§","show":true},{"id":208,"name":"Sri Lanka","iso2":"LK","iso3":"LKA","phonecode":"94","capital":"Colombo","currency":"LKR","native":"Å›rÄ« laá¹ƒkÄva","emoji":"ğŸ‡±ğŸ‡°","ARName":"Ø³Ø±ÙŠÙ„Ø§Ù†ÙƒØ§","show":true},{"id":209,"name":"Sudan","iso2":"SD","iso3":"SDN","phonecode":"249","capital":"Khartoum","currency":"SDG","native":"Ø§Ù„Ø³ÙˆØ¯Ø§Ù†","emoji":"ğŸ‡¸ğŸ‡©","ARName":"Ø§Ù„Ø³ÙˆØ¯Ø§Ù†","show":true},{"id":210,"name":"Suriname","iso2":"SR","iso3":"SUR","phonecode":"597","capital":"Paramaribo","currency":"SRD","native":"Suriname","emoji":"ğŸ‡¸ğŸ‡·","ARName":"Ø³ÙˆØ±ÙŠÙ†Ø§Ù…","show":true},{"id":211,"name":"Svalbard And Jan Mayen Islands","iso2":"SJ","iso3":"SJM","phonecode":"47","capital":"Longyearbyen","currency":"NOK","native":"Svalbard og Jan Mayen","emoji":"ğŸ‡¸ğŸ‡¯","ARName":"Ø¬Ø²Ø± Ø³ÙØ§Ù„Ø¨Ø§Ø±Ø¯ ÙˆØ¬Ø§Ù† Ù…Ø§ÙŠÙ†","show":false},{"id":212,"name":"Swaziland","iso2":"SZ","iso3":"SWZ","phonecode":"268","capital":"Mbabane","currency":"SZL","native":"Swaziland","emoji":"ğŸ‡¸ğŸ‡¿","ARName":"Ø³ÙˆØ§Ø²ÙŠÙ„Ø§Ù†Ø¯","show":true},{"id":213,"name":"Sweden","iso2":"SE","iso3":"SWE","phonecode":"46","capital":"Stockholm","currency":"SEK","native":"Sverige","emoji":"ğŸ‡¸ğŸ‡ª","ARName":"Ø§Ù„Ø³ÙˆÙŠØ¯","show":true},{"id":214,"name":"Switzerland","iso2":"CH","iso3":"CHE","phonecode":"41","capital":"Bern","currency":"CHF","native":"Schweiz","emoji":"ğŸ‡¨ğŸ‡­","ARName":"Ø³ÙˆÙŠØ³Ø±Ø§","show":true},{"id":215,"name":"Syria","iso2":"SY","iso3":"SYR","phonecode":"963","capital":"Damascus","currency":"SYP","native":"Ø³ÙˆØ±ÙŠØ§","emoji":"ğŸ‡¸ğŸ‡¾","ARName":"Ø³ÙˆØ±ÙŠØ§","show":true},{"id":216,"name":"Taiwan","iso2":"TW","iso3":"TWN","phonecode":"886","capital":"Taipei","currency":"TWD","native":"è‡ºç£","emoji":"ğŸ‡¹ğŸ‡¼","ARName":"ØªØ§ÙŠÙˆØ§Ù†","show":true},{"id":217,"name":"Tajikistan","iso2":"TJ","iso3":"TJK","phonecode":"992","capital":"Dushanbe","currency":"TJS","native":"Ğ¢Ğ¾Ò·Ğ¸ĞºĞ¸ÑÑ‚Ğ¾Ğ½","emoji":"ğŸ‡¹ğŸ‡¯","ARName":"Ø·Ø§Ø¬ÙŠÙƒØ³ØªØ§Ù†","show":true},{"id":218,"name":"Tanzania","iso2":"TZ","iso3":"TZA","phonecode":"255","capital":"Dodoma","currency":"TZS","native":"Tanzania","emoji":"ğŸ‡¹ğŸ‡¿","ARName":"ØªÙ†Ø²Ø§Ù†ÙŠØ§","show":true},{"id":219,"name":"Thailand","iso2":"TH","iso3":"THA","phonecode":"66","capital":"Bangkok","currency":"THB","native":"à¸›à¸£à¸°à¹€à¸—à¸¨à¹„à¸—à¸¢","emoji":"ğŸ‡¹ğŸ‡­","ARName":"ØªØ§ÙŠÙ„Ø§Ù†Ø¯","show":true},{"id":220,"name":"Togo","iso2":"TG","iso3":"TGO","phonecode":"228","capital":"Lome","currency":"XOF","native":"Togo","emoji":"ğŸ‡¹ğŸ‡¬","ARName":"ØªÙˆØºÙˆ","show":true},{"id":221,"name":"Tokelau","iso2":"TK","iso3":"TKL","phonecode":"690","capital":"","currency":"NZD","native":"Tokelau","emoji":"ğŸ‡¹ğŸ‡°","ARName":"ØªÙˆÙƒÙŠÙ„Ø§Ùˆ","show":false},{"id":222,"name":"Tonga","iso2":"TO","iso3":"TON","phonecode":"676","capital":"Nuku'alofa","currency":"TOP","native":"Tonga","emoji":"ğŸ‡¹ğŸ‡´","ARName":"ØªÙˆÙ†ØºØ§","show":true},{"id":223,"name":"Trinidad And Tobago","iso2":"TT","iso3":"TTO","phonecode":"+1-868","capital":"Port of Spain","currency":"TTD","native":"Trinidad and Tobago","emoji":"ğŸ‡¹ğŸ‡¹","ARName":"ØªØ±ÙŠÙ†ÙŠØ¯Ø§Ø¯ ÙˆØªÙˆØ¨Ø§ØºÙˆ","show":true},{"id":224,"name":"Tunisia","iso2":"TN","iso3":"TUN","phonecode":"216","capital":"Tunis","currency":"TND","native":"ØªÙˆÙ†Ø³","emoji":"ğŸ‡¹ğŸ‡³","ARName":"ØªÙˆÙ†Ø³","show":true},{"id":225,"name":"Turkey","iso2":"TR","iso3":"TUR","phonecode":"90","capital":"Ankara","currency":"TRY","native":"TÃ¼rkiye","emoji":"ğŸ‡¹ğŸ‡·","ARName":"ØªØ±ÙƒÙŠØ§","show":true},{"id":226,"name":"Turkmenistan","iso2":"TM","iso3":"TKM","phonecode":"993","capital":"Ashgabat","currency":"TMT","native":"TÃ¼rkmenistan","emoji":"ğŸ‡¹ğŸ‡²","ARName":"ØªØ±ÙƒÙ…Ø§Ù†Ø³ØªØ§Ù†","show":true},{"id":227,"name":"Turks And Caicos Islands","iso2":"TC","iso3":"TCA","phonecode":"+1-649","capital":"Cockburn Town","currency":"USD","native":"Turks and Caicos Islands","emoji":"ğŸ‡¹ğŸ‡¨","ARName":"Ø¬Ø²Ø± ØªÙˆØ±ÙƒØ³ ÙˆÙƒØ§ÙŠÙƒÙˆØ³","show":false},{"id":228,"name":"Tuvalu","iso2":"TV","iso3":"TUV","phonecode":"688","capital":"Funafuti","currency":"AUD","native":"Tuvalu","emoji":"ğŸ‡¹ğŸ‡»","ARName":"ØªÙˆÙØ§Ù„Ùˆ","show":true},{"id":229,"name":"Uganda","iso2":"UG","iso3":"UGA","phonecode":"256","capital":"Kampala","currency":"UGX","native":"Uganda","emoji":"ğŸ‡ºğŸ‡¬","ARName":"Ø£ÙˆØºÙ†Ø¯Ø§","show":true},{"id":230,"name":"Ukraine","iso2":"UA","iso3":"UKR","phonecode":"380","capital":"Kyiv","currency":"UAH","native":"Ğ£ĞºÑ€Ğ°Ñ—Ğ½Ğ°","emoji":"ğŸ‡ºğŸ‡¦","ARName":"Ø£ÙˆÙƒØ±Ø§Ù†ÙŠØ§","show":true},{"id":231,"name":"United Arab Emirates","iso2":"AE","iso3":"ARE","phonecode":"971","capital":"Abu Dhabi","currency":"AED","native":"Ø§Ù„Ø¥Ù…Ø§Ø±Ø§Øª Ø§Ù„Ø¹Ø±Ø¨ÙŠØ© Ø§Ù„Ù…ØªØ­Ø¯Ø©","emoji":"ğŸ‡¦ğŸ‡ª","ARName":"Ø§Ù„Ø¥Ù…Ø§Ø±Ø§Øª Ø§Ù„Ø¹Ø±Ø¨ÙŠØ© Ø§Ù„Ù…ØªØ­Ø¯Ø©","show":true},{"id":232,"name":"United Kingdom","iso2":"GB","iso3":"GBR","phonecode":"44","capital":"London","currency":"GBP","native":"United Kingdom","emoji":"ğŸ‡¬ğŸ‡§","ARName":"Ø§Ù„Ù…Ù…Ù„ÙƒØ© Ø§Ù„Ù…ØªØ­Ø¯Ø©","show":true},{"id":233,"name":"United States","iso2":"US","iso3":"USA","phonecode":"1","capital":"Washington","currency":"USD","native":"United States","emoji":"ğŸ‡ºğŸ‡¸","ARName":"Ø§Ù„ÙˆÙ„Ø§ÙŠØ§Øª Ø§Ù„Ù…ØªØ­Ø¯Ø©","show":true},{"id":234,"name":"United States Minor Outlying Islands","iso2":"UM","iso3":"UMI","phonecode":"1","capital":"","currency":"USD","native":"United States Minor Outlying Islands","emoji":"ğŸ‡ºğŸ‡²","ARName":"Ø¬Ø²Ø± Ø§Ù„ÙˆÙ„Ø§ÙŠØ§Øª Ø§Ù„Ù…ØªØ­Ø¯Ø© Ø§Ù„ØµØºÙŠØ±Ø© Ø§Ù„Ù†Ø§Ø¦ÙŠØ©","show":true},{"id":235,"name":"Uruguay","iso2":"UY","iso3":"URY","phonecode":"598","capital":"Montevideo","currency":"UYU","native":"Uruguay","emoji":"ğŸ‡ºğŸ‡¾","ARName":"Ø£ÙˆØ±ÙˆØºÙˆØ§ÙŠ","show":true},{"id":236,"name":"Uzbekistan","iso2":"UZ","iso3":"UZB","phonecode":"998","capital":"Tashkent","currency":"UZS","native":"Oâ€˜zbekiston","emoji":"ğŸ‡ºğŸ‡¿","ARName":"Ø£ÙˆØ²Ø¨ÙƒØ³ØªØ§Ù†","show":true},{"id":237,"name":"Vanuatu","iso2":"VU","iso3":"VUT","phonecode":"678","capital":"Port Vila","currency":"VUV","native":"Vanuatu","emoji":"ğŸ‡»ğŸ‡º","ARName":"ÙØ§Ù†ÙˆØ§ØªÙˆ","show":true},{"id":238,"name":"Vatican City State (Holy See)","iso2":"VA","iso3":"VAT","phonecode":"379","capital":"Vatican City","currency":"EUR","native":"Vaticano","emoji":"ğŸ‡»ğŸ‡¦","ARName":"Ø¯ÙˆÙ„Ø© Ø§Ù„ÙØ§ØªÙŠÙƒØ§Ù† (Ø§Ù„ÙƒØ±Ø³ÙŠ Ø§Ù„Ø±Ø³ÙˆÙ„ÙŠ)","show":false},{"id":239,"name":"Venezuela","iso2":"VE","iso3":"VEN","phonecode":"58","capital":"Caracas","currency":"VES","native":"Venezuela","emoji":"ğŸ‡»ğŸ‡ª","ARName":"ÙÙ†Ø²ÙˆÙŠÙ„Ø§","show":true},{"id":240,"name":"Vietnam","iso2":"VN","iso3":"VNM","phonecode":"84","capital":"Hanoi","currency":"VND","native":"Viá»‡t Nam","emoji":"ğŸ‡»ğŸ‡³","ARName":"ÙÙŠØªÙ†Ø§Ù…","show":true},{"id":241,"name":"Virgin Islands (British)","iso2":"VG","iso3":"VGB","phonecode":"+1-284","capital":"Road Town","currency":"USD","native":"British Virgin Islands","emoji":"ğŸ‡»ğŸ‡¬","ARName":"Ø¬Ø²Ø± ÙÙŠØ±Ø¬Ù† (Ø¨Ø±ÙŠØ·Ø§Ù†ÙŠØ§)","show":false},{"id":242,"name":"Virgin Islands (US)","iso2":"VI","iso3":"VIR","phonecode":"+1-340","capital":"Charlotte Amalie","currency":"USD","native":"United States Virgin Islands","emoji":"ğŸ‡»ğŸ‡®","ARName":"Ø¬Ø²Ø± ÙÙŠØ±Ø¬Ù† (Ø§Ù„ÙˆÙ„Ø§ÙŠØ§Øª Ø§Ù„Ù…ØªØ­Ø¯Ø©)","show":true},{"id":243,"name":"Wallis And Futuna Islands","iso2":"WF","iso3":"WLF","phonecode":"681","capital":"Mata Utu","currency":"XPF","native":"Wallis et Futuna","emoji":"ğŸ‡¼ğŸ‡«","ARName":"Ø¬Ø²Ø± ÙˆØ§Ù„ÙŠØ³ ÙˆÙÙˆØªÙˆÙ†Ø§","show":false},{"id":244,"name":"Western Sahara","iso2":"EH","iso3":"ESH","phonecode":"212","capital":"El-Aaiun","currency":"MAD","native":"Ø§Ù„ØµØ­Ø±Ø§Ø¡ Ø§Ù„ØºØ±Ø¨ÙŠØ©","emoji":"ğŸ‡ªğŸ‡­","ARName":"Ø§Ù„ØµØ­Ø±Ø§Ø¡ Ø§Ù„ØºØ±Ø¨ÙŠØ©","show":false},{"id":245,"name":"Yemen","iso2":"YE","iso3":"YEM","phonecode":"967","capital":"Sanaa","currency":"YER","native":"Ø§Ù„ÙŠÙÙ…ÙÙ†","emoji":"ğŸ‡¾ğŸ‡ª","ARName":"Ø§Ù„ÙŠÙÙ…ÙÙ†","show":true},{"id":246,"name":"Zambia","iso2":"ZM","iso3":"ZMB","phonecode":"260","capital":"Lusaka","currency":"ZMW","native":"Zambia","emoji":"ğŸ‡¿ğŸ‡²","ARName":"Ø²Ø§Ù…Ø¨ÙŠØ§","show":true},{"id":247,"name":"Zimbabwe","iso2":"ZW","iso3":"ZWE","phonecode":"263","capital":"Harare","currency":"ZWL","native":"Zimbabwe","emoji":"ğŸ‡¿ğŸ‡¼","ARName":"Ø²ÙŠÙ…Ø¨Ø§Ø¨ÙˆÙŠ","show":true},{"id":248,"name":"Kosovo","iso2":"XK","iso3":"XKX","phonecode":"383","capital":"Pristina","currency":"EUR","native":"Republika e KosovÃ«s","emoji":"ğŸ‡½ğŸ‡°","ARName":"ÙƒÙˆØ³ÙˆÙÙˆ","show":true},{"id":249,"name":"CuraÃ§ao","iso2":"CW","iso3":"CUW","phonecode":"599","capital":"Willemstad","currency":"ANG","native":"CuraÃ§ao","emoji":"ğŸ‡¨ğŸ‡¼","ARName":"ÙƒÙˆØ±Ø§Ø³Ø§Ùˆ","show":false},{"id":250,"name":"Sint Maarten (Dutch part)","iso2":"SX","iso3":"SXM","phonecode":"1721","capital":"Philipsburg","currency":"ANG","native":"Sint Maarten","emoji":"ğŸ‡¸ğŸ‡½","ARName":"Ø³ÙŠÙ†Øª Ù…Ø§Ø±ØªÙ† (Ø§Ù„Ø¬Ø²Ø¡ Ø§Ù„Ù‡ÙˆÙ„Ù†Ø¯ÙŠ)","show":false}]
